STARLINK-30705          
1 57945U 23148L   26062.95869283  .00001321  00000+0  56744-4 0  9990
2 57945  53.1616  50.9988 0001286  86.3582 273.7566 15.30195302137547
STARLINK-30704          
1 57946U 23148M   26062.45746351  .00002293  00000+0  89534-4 0  9998
2 57946  53.1598 130.3954 0001160  85.0858 275.0275 15.30189906136360
STARLINK-30706          
1 57947U 23148N   26062.37718812  .00001381  00000+0  58740-4 0  9993
2 57947  53.1607  53.7515 0001397  99.8664 260.2495 15.30197493137454
STARLINK-30707          
1 57949U 23148Q   26062.37402646  .00000853  00000+0  40939-4 0  9994
2 57949  53.1616  53.7388 0001442  86.3549 273.7616 15.30194951137458
STARLINK-30701          
1 57950U 23148R   26062.95552439  .00000936  00000+0  43725-4 0  9994
2 57950  53.1618  50.9533 0001423  97.2024 262.9139 15.30189896137543
STARLINK-30399          
1 57951U 23148S   26062.29815685  .00000766  00000+0  37993-4 0  9998
2 57951  53.1609  53.9596 0001409  95.2095 264.9066 15.30193734137442
STARLINK-30713          
1 57952U 23148T   26062.34764349  .00001467  00000+0  61643-4 0  9993
2 57952  53.1607  53.5789 0001158 117.0830 243.0289 15.30196991137456
STARLINK-30700          
1 57953U 23148U   26062.32035099  .00003268  00000+0  12243-3 0  9997
2 57953  53.1609  43.7930 0001619  90.0852 270.0334 15.30192805137589
STARLINK-30703          
1 57954U 23148V   26062.94714982  .00001101  00000+0  49285-4 0  9992
2 57954  53.1609  40.8427 0001404  86.5710 273.5451 15.30197361137685
STARLINK-30702          
1 57955U 23148W   26062.95137272  .00000707  00000+0  36001-4 0  9998
2 57955  53.1609  40.8621 0001231  81.2729 278.8411 15.30196592137681
STARLINK-30396          
1 57964U 23151A   26062.91670139  .01290373  00000+0  48633-1 0  9994
2 57964  43.0005   8.8352 0002054 260.0246   2.3237 15.23292156  5785
STARLINK-30524          
1 57965U 23151B   26062.91670139  .00061352  00000+0  22827-2 0  9995
2 57965  43.0000   8.7852 0001850 260.1733  23.9656 15.26669709  5677
STARLINK-30521          
1 57966U 23151C   26062.91670139  .00015939  00000+0  60256-3 0  9995
2 57966  43.0013   8.3755 0001576 246.8218 206.0858 15.26742451  5780
STARLINK-30528          
1 57967U 23151D   26062.91670139  .00103218  00000+0  37304-2 0  9991
2 57967  43.0012   8.4371 0003534 262.9276 163.6928 15.27380965  5789
STARLINK-30495          
1 57968U 23151E   26062.91670139  .00017744  00000+0  66971-3 0  9993
2 57968  43.0023   8.5708 0001682 267.4365 102.7586 15.26733181  5727
STARLINK-30494          
1 57970U 23151G   26062.80569110  .00000123  00000+0  13735-4 0  9994
2 57970  43.0030 223.8659 0001804 280.9664  79.0985 15.28408293136553
