[{"OBJECT_NAME":"STARLINK-30705","OBJECT_ID":"2023-148L","EPOCH":"2026-03-03T23:00:31.060512","MEAN_MOTION":15.30195302,"ECCENTRICITY":0.00012868,"INCLINATION":53.1616,"RA_OF_ASC_NODE":50.9988,"ARG_OF_PERICENTER":86.3582,"MEAN_ANOMALY":273.7566,"EPHEMERIS_TYPE":0,"CLASSIFICATION_TYPE":"U","NORAD_CAT_ID":57945,"ELEMENT_SET_NO":999,"REV_AT_EPOCH":13754,"BSTAR":5.6743858e-5,"MEAN_MOTION_DOT":1.321e-5,"MEAN_MOTION_DDOT":0},{"OBJECT_NAME":"STARLINK-30704","OBJECT_ID":"2023-148M","EPOCH":"2026-03-03T10:58:44.847264","MEAN_MOTION":15.30189906,"ECCENTRICITY":0.00011603,"INCLINATION":53.1598,"RA_OF_ASC_NODE":130.3954,"ARG_OF_PERICENTER":85.0858,"MEAN_ANOMALY":275.0275,"EPHEMERIS_TYPE":0,"CLASSIFICATION_TYPE":"U","NORAD_CAT_ID":57946,"ELEMENT_SET_NO":999,"REV_AT_EPOCH":13636,"BSTAR":8.953417e-5,"MEAN_MOTION_DOT":2.293e-5,"MEAN_MOTION_DDOT":0},{"OBJECT_NAME":"STARLINK-30706","OBJECT_ID":"2023-148N","EPOCH":"2026-03-03T09:03:09.053568","MEAN_MOTION":15.30197493,"ECCENTRICITY":0.0001397,"INCLINATION":53.1607,"RA_OF_ASC_NODE":53.7515,"ARG_OF_PERICENTER":99.8664,"MEAN_ANOMALY":260.2495,"EPHEMERIS_TYPE":0,"CLASSIFICATION_TYPE":"U","NORAD_CAT_ID":57947,"ELEMENT_SET_NO":999,"REV_AT_EPOCH":13745,"BSTAR":5.8739549e-5,"MEAN_MOTION_DOT":1.381e-5,"MEAN_MOTION_DDOT":0},{"OBJECT_NAME":"STARLINK-30707","OBJECT_ID":"2023-148Q","EPOCH":"2026-03-03T08:58:35.886144","MEAN_MOTION":15.30194951,"ECCENTRICITY":0.0001442,"INCLINATION":53.1616,"RA_OF_ASC_NODE":53.7388,"ARG_OF_PERICENTER":86.3549,"MEAN_ANOMALY":273.7616,"EPHEMERIS_TYPE":0,"CLASSIFICATION_TYPE":"U","NORAD_CAT_ID":57949,"ELEMENT_SET_NO":999,"REV_AT_EPOCH":13745,"BSTAR":4.0938549e-5,"MEAN_MOTION_DOT":8.53e-6,"MEAN_MOTION_DDOT":0},{"OBJECT_NAME":"STARLINK-30701","OBJECT_ID":"2023-148R","EPOCH":"2026-03-03T22:55:57.307296","MEAN_MOTION":15.30189896,"ECCENTRICITY":0.00014237,"INCLINATION":53.1618,"RA_OF_ASC_NODE":50.9533,"ARG_OF_PERICENTER":97.2024,"MEAN_ANOMALY":262.9139,"EPHEMERIS_TYPE":0,"CLASSIFICATION_TYPE":"U","NORAD_CAT_ID":57950,"ELEMENT_SET_NO":999,"REV_AT_EPOCH":13754,"BSTAR":4.3725315e-5,"MEAN_MOTION_DOT":9.36e-6,"MEAN_MOTION_DDOT":0},{"OBJECT_NAME":"STARLINK-30399","OBJECT_ID":"2023-148S","EPOCH":"2026-03-03T07:09:20.751840","MEAN_MOTION":15.30193734,"ECCENTRICITY":0.00014099,"INCLINATION":53.1609,"RA_OF_ASC_NODE":53.9596,"ARG_OF_PERICENTER":95.2095,"MEAN_ANOMALY":264.9066,"EPHEMERIS_TYPE":0,"CLASSIFICATION_TYPE":"U","NORAD_CAT_ID":57951,"ELEMENT_SET_NO":999,"REV_AT_EPOCH":13744,"BSTAR":3.7993403e-5,"MEAN_MOTION_DOT":7.66e-6,"MEAN_MOTION_DDOT":0},{"OBJECT_NAME":"STARLINK-30713","OBJECT_ID":"2023-148T","EPOCH":"2026-03-03T08:20:36.397536","MEAN_MOTION":15.30196991,"ECCENTRICITY":0.00011585,"INCLINATION":53.1607,"RA_OF_ASC_NODE":53.5789,"ARG_OF_PERICENTER":117.083,"MEAN_ANOMALY":243.0289,"EPHEMERIS_TYPE":0,"CLASSIFICATION_TYPE":"U","NORAD_CAT_ID":57952,"ELEMENT_SET_NO":999,"REV_AT_EPOCH":13745,"BSTAR":6.1642662e-5,"MEAN_MOTION_DOT":1.467e-5,"MEAN_MOTION_DDOT":0},{"OBJECT_NAME":"STARLINK-30700","OBJECT_ID":"2023-148U","EPOCH":"2026-03-03T07:41:18.325536","MEAN_MOTION":15.30192805,"ECCENTRICITY":0.00016199,"INCLINATION":53.1609,"RA_OF_ASC_NODE":43.793,"ARG_OF_PERICENTER":90.0852,"MEAN_ANOMALY":270.0334,"EPHEMERIS_TYPE":0,"CLASSIFICATION_TYPE":"U","NORAD_CAT_ID":57953,"ELEMENT_SET_NO":999,"REV_AT_EPOCH":13758,"BSTAR":0.00012243413,"MEAN_MOTION_DOT":3.268e-5,"MEAN_MOTION_DDOT":0},{"OBJECT_NAME":"STARLINK-30703","OBJECT_ID":"2023-148V","EPOCH":"2026-03-03T22:43:53.744448","MEAN_MOTION":15.30197361,"ECCENTRICITY":0.00014041,"INCLINATION":53.1609,"RA_OF_ASC_NODE":40.8427,"ARG_OF_PERICENTER":86.571,"MEAN_ANOMALY":273.5451,"EPHEMERIS_TYPE":0,"CLASSIFICATION_TYPE":"U","NORAD_CAT_ID":57954,"ELEMENT_SET_NO":999,"REV_AT_EPOCH":13768,"BSTAR":4.9284597e-5,"MEAN_MOTION_DOT":1.101e-5,"MEAN_MOTION_DDOT":0},{"OBJECT_NAME":"STARLINK-30702","OBJECT_ID":"2023-148W","EPOCH":"2026-03-03T22:49:58.603008","MEAN_MOTION":15.30196592,"ECCENTRICITY":0.00012312,"INCLINATION":53.1609,"RA_OF_ASC_NODE":40.8621,"ARG_OF_PERICENTER":81.2729,"MEAN_ANOMALY":278.8411,"EPHEMERIS_TYPE":0,"CLASSIFICATION_TYPE":"U","NORAD_CAT_ID":57955,"ELEMENT_SET_NO":999,"REV_AT_EPOCH":13768,"BSTAR":3.6001406e-5,"MEAN_MOTION_DOT":7.07e-6,"MEAN_MOTION_DDOT":0},{"OBJECT_NAME":"STARLINK-30396","OBJECT_ID":"2023-151A","EPOCH":"2026-03-03T22:00:03.000096","MEAN_MOTION":15.23292156,"ECCENTRICITY":0.00020544,"INCLINATION":43.0005,"RA_OF_ASC_NODE":8.8352,"ARG_OF_PERICENTER":260.0246,"MEAN_ANOMALY":2.3237,"EPHEMERIS_TYPE":0,"CLASSIFICATION_TYPE":"U","NORAD_CAT_ID":57964,"ELEMENT_SET_NO":999,"REV_AT_EPOCH":578,"BSTAR":0.048633108,"MEAN_MOTION_DOT":0.01290373,"MEAN_MOTION_DDOT":0},{"OBJECT_NAME":"STARLINK-30524","OBJECT_ID":"2023-151B","EPOCH":"2026-03-03T22:00:03.000096","MEAN_MOTION":15.26669709,"ECCENTRICITY":0.00018505,"INCLINATION":43,"RA_OF_ASC_NODE":8.7852,"ARG_OF_PERICENTER":260.1733,"MEAN_ANOMALY":23.9656,"EPHEMERIS_TYPE":0,"CLASSIFICATION_TYPE":"U","NORAD_CAT_ID":57965,"ELEMENT_SET_NO":999,"REV_AT_EPOCH":567,"BSTAR":0.002282742,"MEAN_MOTION_DOT":0.00061352,"MEAN_MOTION_DDOT":0},{"OBJECT_NAME":"STARLINK-30521","OBJECT_ID":"2023-151C","EPOCH":"2026-03-03T22:00:03.000096","MEAN_MOTION":15.26742451,"ECCENTRICITY":0.00015769,"INCLINATION":43.0013,"RA_OF_ASC_NODE":8.3755,"ARG_OF_PERICENTER":246.8218,"MEAN_ANOMALY":206.0858,"EPHEMERIS_TYPE":0,"CLASSIFICATION_TYPE":"U","NORAD_CAT_ID":57966,"ELEMENT_SET_NO":999,"REV_AT_EPOCH":578,"BSTAR":0.00060256094,"MEAN_MOTION_DOT":0.00015939,"MEAN_MOTION_DDOT":0},{"OBJECT_NAME":"STARLINK-30528","OBJECT_ID":"2023-151D","EPOCH":"2026-03-03T22:00:03.000096","MEAN_MOTION":15.27380965,"ECCENTRICITY":0.00035341,"INCLINATION":43.0012,"RA_OF_ASC_NODE":8.4371,"ARG_OF_PERICENTER":262.9276,"MEAN_ANOMALY":163.6928,"EPHEMERIS_TYPE":0,"CLASSIFICATION_TYPE":"U","NORAD_CAT_ID":57967,"ELEMENT_SET_NO":999,"REV_AT_EPOCH":578,"BSTAR":0.0037304313,"MEAN_MOTION_DOT":0.00103218,"MEAN_MOTION_DDOT":0},{"OBJECT_NAME":"STARLINK-30495","OBJECT_ID":"2023-151E","EPOCH":"2026-03-03T22:00:03.000096","MEAN_MOTION":15.26733181,"ECCENTRICITY":0.00016825,"INCLINATION":43.0023,"RA_OF_ASC_NODE":8.5708,"ARG_OF_PERICENTER":267.4365,"MEAN_ANOMALY":102.7586,"EPHEMERIS_TYPE":0,"CLASSIFICATION_TYPE":"U","NORAD_CAT_ID":57968,"ELEMENT_SET_NO":999,"REV_AT_EPOCH":572,"BSTAR":0.00066971211,"MEAN_MOTION_DOT":0.00017744,"MEAN_MOTION_DDOT":0},{"OBJECT_NAME":"STARLINK-30494","OBJECT_ID":"2023-151G","EPOCH":"2026-03-03T19:20:11.711040","MEAN_MOTION":15.28408293,"ECCENTRICITY":0.00018042,"INCLINATION":43.003,"RA_OF_ASC_NODE":223.8659,"ARG_OF_PERICENTER":280.9664,"MEAN_ANOMALY":79.0985,"EPHEMERIS_TYPE":0,"CLASSIFICATION_TYPE":"U","NORAD_CAT_ID":57970,"ELEMENT_SET_NO":999,"REV_AT_EPOCH":13655,"BSTAR":1.3734543e-5,"MEAN_MOTION_DOT":1.23e-6,"MEAN_MOTION_DDOT":0}]
